KUIPER-00089            
1 64834U 25151U   25289.66668981 -.00861795  00000+0 -58769-1 0  9998
2 64834  51.9046 204.5261 0003629 126.0515  53.1626 15.08479829  5227
KUIPER-00090            
1 64835U 25151V   25289.66668981 -.01211727  00000+0 -50344-1 0  9995
2 64835  51.8829 202.2670 0006723 142.5723  18.4573 15.26096719  4460
KUIPER-00091            
1 64836U 25151W   25289.66668981 -.01205438  00000+0 -70237-1 0  9991
2 64836  51.8807 203.5146 0007968 141.5436  94.4250 15.14562343  4285
KUIPER-00092            
1 64837U 25151X   25289.66668981  .00010434  00000+0  10637-2 0  9998
2 64837  51.8932 207.7963 0008398 117.9772 254.4983 14.91130159  2274
KUIPER-00093            
1 64838U 25151Y   25289.66668981  .00035650  00000+0  42862-2 0  9991
2 64838  51.8973 210.0130 0014422 131.2898  62.5991 14.83542354  1930
KUIPER-00094            
1 64839U 25151Z   25289.66668981 -.00901863  00000+0 -60569-1 0  9995
2 64839  51.8941 204.6304 0007339 136.4084 256.2948 15.09125463  4878
KUIPER-00081            
1 65132U 25171A   25289.53687686  .00020941  00000+0  56548-3 0  9994
2 65132  51.8729  85.8951 0004663 359.5978   0.5004 15.37709818 11406
KUIPER-00088            
1 65133U 25171B   25289.66668981 -.00489494  00000+0 -25006-1 0  9993
2 65133  51.8918  86.6687 0006576 350.5763  48.4071 15.18486929  5288
